NORAD_CAT_ID,OBJECT_NAME,OBJECT_TYPE,EPOCH,MEAN_MOTION,ECCENTRICITY,INCLINATION,RA_OF_ASC_NODE,ARG_OF_PERICENTER,MEAN_ANOMALY,BSTAR,MEAN_MOTION_DOT,MEAN_MOTION_DDOT,TLE_LINE0,TLE_LINE1,TLE_LINE2,SEMIMAJOR_AXIS,PERIOD,APOGEE,PERIGEE,DECAYED
53726.0,STARLINK-4697,PAYLOAD,2023-05-31 08:06:17,15.08847656,0.000123,53.2153,123.1073,91.3129,268.8004,8.5037e-05,1.066e-05,0.0,0 STARLINK-4697,1 53726U 22107AC  23151.33770329  .00001066  00000-0  85037-4 0  9991,2 53726  53.2153 123.1073 0001230  91.3129 268.8004 15.08847656 40970,6917.857,95.437,540.573,538.871,0.0
53726.0,STARLINK-4697,PAYLOAD,2023-05-31 22:24:46,15.08839,0.0001401,53.2157,120.431,94.1678,265.9474,3.3424e-05,2.44e-06,0.0,0 STARLINK-4697,1 53726U 22107AC  23151.93387022  .00000244  00000-0  33424-4 0  9991,2 53726  53.2157 120.4310 0001401  94.1678 265.9474 15.08839000 41523,6917.883,95.438,540.718,538.779,0.0
53726.0,STARLINK-4697,PAYLOAD,2023-06-01 01:35:33,15.08834043,0.0001345,53.2159,119.8349,111.7794,248.3341,-6.7862e-06,-3.96e-06,0.0,0 STARLINK-4697,1 53726U 22107AC  23152.06635499 -.00000396  00000-0 -67862-5 0  9994,2 53726  53.2159 119.8349 0001345 111.7794 248.3341 15.08834043 41082,6917.899,95.438,540.694,538.833,0.0
53726.0,STARLINK-4697,PAYLOAD,2023-06-01 04:46:19,15.08834943,0.0001092,53.2157,119.2433,95.2889,264.8228,2.8723e-06,-2.42e-06,0.0,0 STARLINK-4697,1 53726U 22107AC  23152.19883555 -.00000242  00000-0  28723-5 0  9998,2 53726  53.2157 119.2433 0001092  95.2889 264.8228 15.08834943 41567,6917.896,95.438,540.516,539.005,0.0
53726.0,STARLINK-4697,PAYLOAD,2023-06-02 03:01:43,15.08834148,0.0001099,53.2156,115.0801,94.3972,265.7145,-3.1509e-05,-7.89e-06,0.0,0 STARLINK-4697,1 53726U 22107AC  23153.12620134 -.00000789  00000-0 -31509-4 0  9996,2 53726  53.2156 115.0801 0001099  94.3972 265.7145 15.08834148 41249,6917.898,95.438,540.524,539.003,0.0
53726.0,STARLINK-4697,PAYLOAD,2023-06-02 04:37:06,15.08835057,0.0001097,53.2158,114.7831,94.7817,265.3301,-2.1232e-05,-6.26e-06,0.0,0 STARLINK-4697,1 53726U 22107AC  23153.19244072 -.00000626  00000-0 -21232-4 0  9998,2 53726  53.2158 114.7831 0001097  94.7817 265.3301 15.08835057 41712,6917.895,95.438,540.519,539.002,0.0
53726.0,STARLINK-4697,PAYLOAD,2023-06-03 04:27:53,15.08838773,0.0001028,53.2161,110.3224,95.8147,264.2962,0.00011794,1.59e-05,0.0,0 STARLINK-4697,1 53726U 22107AC  23154.18603799  .00001590  00000-0  11794-3 0  9993,2 53726  53.2161 110.3224 0001028  95.8147 264.2962 15.08838773 41401,6917.884,95.438,540.46,539.038,0.0
53726.0,STARLINK-4697,PAYLOAD,2023-06-04 04:18:40,15.08839811,0.000106,53.2164,105.8619,92.4917,267.6196,0.00011023,1.467e-05,0.0,0 STARLINK-4697,1 53726U 22107AC  23155.17964036  .00001467  00000-0  11023-3 0  9995,2 53726  53.2164 105.8619 0001060  92.4917 267.6196 15.08839811 42013,6917.881,95.438,540.479,539.013,0.0
53726.0,STARLINK-4697,PAYLOAD,2023-06-05 04:09:28,15.08843633,0.0001276,53.2167,101.3994,74.9283,285.185,5.7626e-05,6.29e-06,0.0,0 STARLINK-4697,1 53726U 22107AC  23156.17324081  .00000629  00000-0  57626-4 0  9995,2 53726  53.2167 101.3994 0001276  74.9283 285.1850 15.08843633 41707,6917.869,95.437,540.617,538.852,0.0
53726.0,STARLINK-4697,PAYLOAD,2023-06-05 05:44:51,15.08844692,0.0001297,53.217,101.101,75.2096,284.904,6.4995e-05,7.47e-06,0.0,0 STARLINK-4697,1 53726U 22107AC  23156.23947973  .00000747  00000-0  64995-4 0  9991,2 53726  53.2170 101.1010 0001297  75.2096 284.9040 15.08844692 42173,6917.866,95.437,540.628,538.834,0.0
53726.0,STARLINK-4697,PAYLOAD,2023-06-06 00:49:29,15.08838363,0.0001242,53.2169,97.5318,86.2204,273.893,3.3291e-05,2.42e-06,0.0,0 STARLINK-4697,1 53726U 22107AC  23157.03436388  .00000242  00000-0  33291-4 0  9998,2 53726  53.2169  97.5318 0001242  86.2204 273.8930 15.08838363 41838,6917.885,95.438,540.61,538.891,0.0
53726.0,STARLINK-4697,PAYLOAD,2023-06-06 02:24:52,15.08839435,0.0001272,53.2169,97.2344,83.7912,276.3225,4.2743e-05,3.92e-06,0.0,0 STARLINK-4697,1 53726U 22107AC  23157.10060325  .00000392  00000-0  42743-4 0  9998,2 53726  53.2169  97.2344 0001272  83.7912 276.3225 15.08839435 42304,6917.882,95.438,540.627,538.867,0.0
53726.0,STARLINK-4697,PAYLOAD,2023-06-07 02:15:39,15.08766149,0.0001521,53.2169,92.7756,118.1605,241.9541,0.0011037,0.00017286,0.0,0 STARLINK-4697,1 53726U 22107AC  23158.09421180  .00017286  00000-0  11037-2 0  9997,2 53726  53.2169  92.7756 0001521 118.1605 241.9541 15.08766149 41994,6918.106,95.442,541.023,538.919,0.0
53726.0,STARLINK-4697,PAYLOAD,2023-06-07 19:44:53,15.08833524,0.0001249,53.217,89.5045,100.7422,259.3711,3.0082e-05,1.91e-06,0.0,0 STARLINK-4697,1 53726U 22107AC  23158.82284673  .00000191  00000-0  30082-4 0  9992,2 53726  53.2170  89.5045 0001249 100.7422 259.3711 15.08833524 42560,6917.9,95.438,540.629,538.901,0.0
53726.0,STARLINK-4697,PAYLOAD,2023-06-08 02:06:26,15.0883893,0.0001088,53.2169,88.3174,82.3581,277.7535,-8.9932e-06,-4.31e-06,0.0,0 STARLINK-4697,1 53726U 22107AC  23159.08780615 -.00000431  00000-0 -89932-5 0  9996,2 53726  53.2169  88.3174 0001088  82.3581 277.7535 15.08838930 42148,6917.884,95.438,540.501,538.996,0.0
53726.0,STARLINK-4697,PAYLOAD,2023-06-08 05:17:12,15.08841089,0.0001144,53.2171,87.7219,84.0445,276.0677,1.1958e-05,-9.7e-07,0.0,0 STARLINK-4697,1 53726U 22107AC  23159.22028424 -.00000097  00000-0  11958-4 0  9994,2 53726  53.2171  87.7219 0001144  84.0445 276.0677 15.08841089 42626,6917.877,95.437,540.533,538.951,0.0
53726.0,STARLINK-4697,PAYLOAD,2023-06-09 01:57:13,15.08846034,0.000129,53.2169,83.8546,82.6636,277.4503,4.084e-05,3.62e-06,0.0,0 STARLINK-4697,1 53726U 22107AC  23160.08140137  .00000362  00000-0  40840-4 0  9992,2 53726  53.2169  83.8546 0001290  82.6636 277.4503 15.08846034 42292,6917.862,95.437,540.619,538.835,0.0
53726.0,STARLINK-4697,PAYLOAD,2023-06-09 11:29:32,15.08841265,0.0001356,53.2168,82.0701,85.8862,274.2285,2.5025e-05,1.1e-06,0.0,0 STARLINK-4697,1 53726U 22107AC  23160.47884395  .00000110  00000-0  25025-4 0  9995,2 53726  53.2168  82.0701 0001356  85.8862 274.2285 15.08841265 42815,6917.877,95.437,540.68,538.803,0.0
53726.0,STARLINK-4697,PAYLOAD,2023-06-10 01:48:00,15.08834906,0.0001398,53.2172,79.3956,87.4929,272.6223,4.9909e-05,5.06e-06,0.0,0 STARLINK-4697,1 53726U 22107AC  23161.07500958  .00000506  00000-0  49909-4 0  9998,2 53726  53.2172  79.3956 0001398  87.4929 272.6223 15.08834906 42446,6917.896,95.438,540.728,538.794,0.0
53726.0,STARLINK-4697,PAYLOAD,2023-06-10 11:20:19,15.08837437,0.000127,53.2176,77.615,99.2426,260.871,3.3543e-05,2.46e-06,0.0,0 STARLINK-4697,1 53726U 22107AC  23161.47244947  .00000246  00000-0  33543-4 0  9993,2 53726  53.2176  77.6150 0001270  99.2426 260.8710 15.08837437 42968,6917.888,95.438,540.632,538.875,0.0
53726.0,STARLINK-4697,PAYLOAD,2023-06-10 19:17:15,15.08841602,0.0001132,53.2167,76.1266,102.7639,257.348,-8.9363e-05,-1.71e-05,0.0,0 STARLINK-4697,1 53726U 22107AC  23161.80365253 -.00001710  00000-0 -89363-4 0  9994,2 53726  53.2167  76.1266 0001132 102.7639 257.3480 15.08841602 43014,6917.875,95.437,540.524,538.957,0.0
53726.0,STARLINK-4697,PAYLOAD,2023-06-11 03:14:10,15.08848274,0.0001092,53.2166,74.639,95.8702,264.2414,-1.1363e-05,-4.69e-06,0.0,0 STARLINK-4697,1 53726U 22107AC  23162.13484530 -.00000469  00000-0 -11363-4 0  9996,2 53726  53.2166  74.6390 0001092  95.8702 264.2414 15.08848274 42602,6917.855,95.437,540.476,538.965,0.0
53726.0,STARLINK-4697,PAYLOAD,2023-06-11 12:46:29,15.08837452,0.0001175,53.216,72.8533,90.3574,269.7553,2.9238e-05,1.77e-06,0.0,0 STARLINK-4697,1 53726U 22107AC  23162.53229080  .00000177  00000-0  29238-4 0  9991,2 53726  53.2160  72.8533 0001175  90.3574 269.7553 15.08837452 43122,6917.888,95.438,540.566,538.94,0.0
53726.0,STARLINK-4697,PAYLOAD,2023-06-11 15:57:16,15.08834608,0.0001026,53.2161,72.2585,93.8195,266.2914,8.1719e-05,1.013e-05,0.0,0 STARLINK-4697,1 53726U 22107AC  23162.66477069  .00001013  00000-0  81719-4 0  9999,2 53726  53.2161  72.2585 0001026  93.8195 266.2914 15.08834608 42689,6917.897,95.438,540.472,539.052,0.0
53726.0,STARLINK-4697,PAYLOAD,2023-06-11 20:43:25,15.08838578,0.0001017,53.2166,71.3667,95.7744,264.3364,0.00010779,1.428e-05,0.0,0 STARLINK-4697,1 53726U 22107AC  23162.86348791  .00001428  00000-0  10779-3 0  9997,2 53726  53.2166  71.3667 0001017  95.7744 264.3364 15.08838578 43179,6917.885,95.438,540.453,539.046,0.0
53726.0,STARLINK-4697,PAYLOAD,2023-06-11 23:54:11,15.08844321,9.71e-05,53.2163,70.7718,88.8067,271.3036,8.5556e-05,1.074e-05,0.0,0 STARLINK-4697,1 53726U 22107AC  23162.99596554  .00001074  00000-0  85556-4 0  9996,2 53726  53.2163  70.7718 0000971  88.8067 271.3036 15.08844321 42733,6917.867,95.437,540.404,539.06,0.0
53726.0,STARLINK-4697,PAYLOAD,2023-06-12 11:01:53,15.0884103,9.48e-05,53.2166,68.6908,87.9971,272.1129,4.6554e-05,4.53e-06,0.0,0 STARLINK-4697,1 53726U 22107AC  23163.45964801  .00000453  00000-0  46554-4 0  9997,2 53726  53.2166  68.6908 0000948  87.9971 272.1129 15.08841030 43266,6917.877,95.437,540.398,539.086,0.0
53726.0,STARLINK-4697,PAYLOAD,2023-06-12 14:12:40,15.08834018,0.0001096,53.2171,68.0963,89.272,270.8398,6.5108e-05,7.48e-06,0.0,0 STARLINK-4697,1 53726U 22107AC  23163.59213221  .00000748  00000-0  65108-4 0  9998,2 53726  53.2171  68.0963 0001096  89.2720 270.8398 15.08834018 42821,6917.899,95.438,540.522,539.005,0.0
53726.0,STARLINK-4697,PAYLOAD,2023-06-12 23:44:58,15.08836071,0.0001105,53.217,66.3118,89.9998,270.112,6.9273e-05,8.15e-06,0.0,0 STARLINK-4697,1 53726U 22107AC  23163.98957173  .00000815  00000-0  69273-4 0  9994,2 53726  53.2170  66.3118 0001105  89.9998 270.1120 15.08836071 43343,6917.892,95.438,540.522,538.993,0.0
53726.0,STARLINK-4697,PAYLOAD,2023-06-13 20:24:59,15.08837292,0.0001095,53.2168,62.4466,92.4147,267.697,3.3804e-05,2.5e-06,0.0,0 STARLINK-4697,1 53726U 22107AC  23164.85069224  .00000250  00000-0  33804-4 0  9996,2 53726  53.2168  62.4466 0001095  92.4147 267.6970 15.08837292 43470,6917.889,95.438,540.511,538.996,0.0
